[
    {
        "Altitude(m)": 703563.6559227204,
        "Argument of Periapsis(deg)": 0.0011390121186627068,
        "Eccentricity": 0.0,
        "Inclination(deg)": 45.0,
        "Latitude(deg)": -0.8819962589033283,
        "Longitude(deg)": -64.17247607596501,
        "Mean Anomaly(deg)": -178.8466783352519,
        "RAAN(deg)": 214.9989248058542,
        "Satellite Name": "Constellation 1 957",
        "Satellite Number": 957,
        "Semi-Major Axis(m)": 7083131.272910544,
        "Time(s)": 19
    },
    {
        "Altitude(m)": 703569.6921206051,
        "Argument of Periapsis(deg)": 0.0011989601249081123,
        "Eccentricity": 0.0,
        "Inclination(deg)": 45.0,
        "Latitude(deg)": -0.9252049945967421,
        "Longitude(deg)": -64.13371816319531,
        "Mean Anomaly(deg)": -178.78597719500206,
        "RAAN(deg)": 214.9988682166886,
        "Satellite Name": "Constellation 1 957",
        "Satellite Number": 957,
        "Semi-Major Axis(m)": 7083131.272910544,
        "Time(s)": 20
    },
    {
        "Altitude(m)": 703575.7487997323,
        "Argument of Periapsis(deg)": 0.001258908131153518,
        "Eccentricity": 0.0,
        "Inclination(deg)": 45.0,
        "Latitude(deg)": -0.9684131274918643,
        "Longitude(deg)": -64.09495928434157,
        "Mean Anomaly(deg)": -178.72527605475213,
        "RAAN(deg)": 214.99881162752305,
        "Satellite Name": "Constellation 1 957",
        "Satellite Number": 957,
        "Semi-Major Axis(m)": 7083131.272910544,
        "Time(s)": 21
    },
    {
        "Altitude(m)": 703581.8259516458,
        "Argument of Periapsis(deg)": 0.0013188561373989236,
        "Eccentricity": 0.0,
        "Inclination(deg)": 45.0,
        "Latitude(deg)": -1.0116206326379742,
        "Longitude(deg)": -64.05619955918554,
        "Mean Anomaly(deg)": -178.66457491450225,
        "RAAN(deg)": 214.9987550383575,
        "Satellite Name": "Constellation 1 957",
        "Satellite Number": 957,
        "Semi-Major Axis(m)": 7083131.272910544,
        "Time(s)": 22
    },
    {
        "Altitude(m)": 703587.9235678031,
        "Argument of Periapsis(deg)": 0.0013788041436443293,
        "Eccentricity": 0.0,
        "Inclination(deg)": 45.0,
        "Latitude(deg)": -1.0548274850824029,
        "Longitude(deg)": -64.01743860321596,
        "Mean Anomaly(deg)": -178.60387377425235,
        "RAAN(deg)": 214.9986984491919,
        "Satellite Name": "Constellation 1 957",
        "Satellite Number": 957,
        "Semi-Major Axis(m)": 7083131.272910544,
        "Time(s)": 23
    },
    {
        "Altitude(m)": 703594.0416395706,
        "Argument of Periapsis(deg)": 0.001438752149889735,
        "Eccentricity": 0.0,
        "Inclination(deg)": 45.0,
        "Latitude(deg)": -1.0980336598710467,
        "Longitude(deg)": -63.97867653621023,
        "Mean Anomaly(deg)": -178.54317263400242,
        "RAAN(deg)": 214.99864186002634,
        "Satellite Name": "Constellation 1 957",
        "Satellite Number": 957,
        "Semi-Major Axis(m)": 7083131.272910544,
        "Time(s)": 24
    },
    {
        "Altitude(m)": 703600.1801582064,
        "Argument of Periapsis(deg)": 0.0014987001561351404,
        "Eccentricity": 0.0,
        "Inclination(deg)": 45.0,
        "Latitude(deg)": -1.1412391320474669,
        "Longitude(deg)": -63.939913309846894,
        "Mean Anomaly(deg)": -178.48247149375257,
        "RAAN(deg)": 214.9985852708608,
        "Satellite Name": "Constellation 1 957",
        "Satellite Number": 957,
        "Semi-Major Axis(m)": 7083131.272910544,
        "Time(s)": 25
    },
    {
        "Altitude(m)": 703606.3391148935,
        "Argument of Periapsis(deg)": 0.001558648162380546,
        "Eccentricity": 0.0,
        "Inclination(deg)": 45.0,
        "Latitude(deg)": -1.1844438766537306,
        "Longitude(deg)": -63.901148875801645,
        "Mean Anomaly(deg)": -178.4217703535026,
        "RAAN(deg)": 214.9985286816952,
        "Satellite Name": "Constellation 1 957",
        "Satellite Number": 957,
        "Semi-Major Axis(m)": 7083131.272910544,
        "Time(s)": 26
    },
    {
        "Altitude(m)": 703612.518500713,
        "Argument of Periapsis(deg)": 0.0016185961686259519,
        "Eccentricity": 0.0,
        "Inclination(deg)": 45.0,
        "Latitude(deg)": -1.2276478687293653,
        "Longitude(deg)": -63.86238318574813,
        "Mean Anomaly(deg)": -178.36106921325273,
        "RAAN(deg)": 214.99847209252965,
        "Satellite Name": "Constellation 1 957",
        "Satellite Number": 957,
        "Semi-Major Axis(m)": 7083131.272910544,
        "Time(s)": 27
    },
    {
        "Altitude(m)": 703618.7183066489,
        "Argument of Periapsis(deg)": 0.0016785441748713573,
        "Eccentricity": 0.0,
        "Inclination(deg)": 45.0,
        "Latitude(deg)": -1.2708510833120101,
        "Longitude(deg)": -63.823616191357125,
        "Mean Anomaly(deg)": -178.30036807300286,
        "RAAN(deg)": 214.99841550336407,
        "Satellite Name": "Constellation 1 957",
        "Satellite Number": 957,
        "Semi-Major Axis(m)": 7083131.272910544,
        "Time(s)": 28
    },
    {
        "Altitude(m)": 703624.9385236,
        "Argument of Periapsis(deg)": 0.001738492181116763,
        "Eccentricity": 0.0,
        "Inclination(deg)": 45.0,
        "Latitude(deg)": -1.3140534954370882,
        "Longitude(deg)": -63.78484784429669,
        "Mean Anomaly(deg)": -178.23966693275293,
        "RAAN(deg)": 214.9983589141985,
        "Satellite Name": "Constellation 1 957",
        "Satellite Number": 957,
        "Semi-Major Axis(m)": 7083131.272910544,
        "Time(s)": 29
    },
    {
        "Altitude(m)": 703631.1791423702,
        "Argument of Periapsis(deg)": 0.0017984401873621684,
        "Eccentricity": 0.0,
        "Inclination(deg)": 45.0,
        "Latitude(deg)": -1.3572550801374414,
        "Longitude(deg)": -63.74607826432945,
        "Mean Anomaly(deg)": -178.17896579250305,
        "RAAN(deg)": 214.99830232503294,
        "Satellite Name": "Constellation 1 957",
        "Satellite Number": 957,
        "Semi-Major Axis(m)": 7083131.272910544,
        "Time(s)": 30
    },
    {
        "Altitude(m)": 703637.4401536655,
        "Argument of Periapsis(deg)": 0.0018583881936075745,
        "Eccentricity": 0.0,
        "Inclination(deg)": 45.0,
        "Latitude(deg)": -1.4004558124434932,
        "Longitude(deg)": -63.707307066923676,
        "Mean Anomaly(deg)": -178.11826465225315,
        "RAAN(deg)": 214.99824573586736,
        "Satellite Name": "Constellation 1 957",
        "Satellite Number": 957,
        "Semi-Major Axis(m)": 7083131.272910544,
        "Time(s)": 31
    },
    {
        "Altitude(m)": 703643.7215480999,
        "Argument of Periapsis(deg)": 0.0019183361998529795,
        "Eccentricity": 0.0,
        "Inclination(deg)": 45.0,
        "Latitude(deg)": -1.4436556673832952,
        "Longitude(deg)": -63.668534371835854,
        "Mean Anomaly(deg)": -178.0575635120032,
        "RAAN(deg)": 214.9981891467018,
        "Satellite Name": "Constellation 1 957",
        "Satellite Number": 957,
        "Semi-Major Axis(m)": 7083131.272910544,
        "Time(s)": 32
    },
    {
        "Altitude(m)": 703650.0233161987,
        "Argument of Periapsis(deg)": 0.0019782842060983856,
        "Eccentricity": 0.0,
        "Inclination(deg)": 45.0,
        "Latitude(deg)": -1.4868546199821635,
        "Longitude(deg)": -63.629760130722325,
        "Mean Anomaly(deg)": -177.99686237175334,
        "RAAN(deg)": 214.99813255753622,
        "Satellite Name": "Constellation 1 957",
        "Satellite Number": 957,
        "Semi-Major Axis(m)": 7083131.272910544,
        "Time(s)": 33
    },
    {
        "Altitude(m)": 703656.3454483937,
        "Argument of Periapsis(deg)": 0.0020382322123437906,
        "Eccentricity": 0.0,
        "Inclination(deg)": 45.0,
        "Latitude(deg)": -1.5300526452627838,
        "Longitude(deg)": -63.59098429523617,
        "Mean Anomaly(deg)": -177.9361612315034,
        "RAAN(deg)": 214.99807596837064,
        "Satellite Name": "Constellation 1 957",
        "Satellite Number": 957,
        "Semi-Major Axis(m)": 7083131.272910544,
        "Time(s)": 34
    },
    {
        "Altitude(m)": 703662.6879350157,
        "Argument of Periapsis(deg)": 0.002098180218589197,
        "Eccentricity": 0.0,
        "Inclination(deg)": 45.0,
        "Latitude(deg)": -1.5732497182449015,
        "Longitude(deg)": -63.55220681702725,
        "Mean Anomaly(deg)": -177.87546009125356,
        "RAAN(deg)": 214.99801937920506,
        "Satellite Name": "Constellation 1 957",
        "Satellite Number": 957,
        "Semi-Major Axis(m)": 7083131.272910544,
        "Time(s)": 35
    },
    {
        "Altitude(m)": 703669.050766312,
        "Argument of Periapsis(deg)": 0.002158128224834602,
        "Eccentricity": 0.0,
        "Inclination(deg)": 45.0,
        "Latitude(deg)": -1.6164458139454914,
        "Longitude(deg)": -63.51342764774178,
        "Mean Anomaly(deg)": -177.81475895100363,
        "RAAN(deg)": 214.9979627900395,
        "Satellite Name": "Constellation 1 957",
        "Satellite Number": 957,
        "Semi-Major Axis(m)": 7083131.272910544,
        "Time(s)": 36
    },
    {
        "Altitude(m)": 703675.4339324369,
        "Argument of Periapsis(deg)": 0.002218076231080008,
        "Eccentricity": 0.0,
        "Inclination(deg)": 45.0,
        "Latitude(deg)": -1.659640907378602,
        "Longitude(deg)": -63.474646907119535,
        "Mean Anomaly(deg)": -177.75405781075375,
        "RAAN(deg)": 214.99790620087396,
        "Satellite Name": "Constellation 1 957",
        "Satellite Number": 957,
        "Semi-Major Axis(m)": 7083131.272910544,
        "Time(s)": 37
    }
]